OBJECT_NAME,OBJECT_ID,EPOCH,MEAN_MOTION,ECCENTRICITY,INCLINATION,RA_OF_ASC_NODE,ARG_OF_PERICENTER,MEAN_ANOMALY,EPHEMERIS_TYPE,CLASSIFICATION_TYPE,NORAD_CAT_ID,ELEMENT_SET_NO,REV_AT_EPOCH,BSTAR,MEAN_MOTION_DOT,MEAN_MOTION_DDOT
ONEWEB-0608,2022-166AG,2026-06-27T04:48:42.922656,13.21828730,.00020737,87.9259,241.9758,83.2364,276.9006,0,U,54672,999,17287,.20291653E-3,.97E-6,0
ONEWEB-0610,2022-166AH,2026-06-27T09:46:42.009024,13.21825151,.00018,87.9247,241.9478,81.1175,279.0162,0,U,54673,999,17280,-.2627E-4,.2E-7,0
ONEWEB-0611,2022-166AJ,2026-06-27T11:25:59.149920,13.21825768,.0002143,87.9249,241.9300,101.1201,259.0174,0,U,54674,999,17280,-.1781E-4,.6E-7,0
ONEWEB-0612,2022-166AK,2026-06-27T09:56:23.587296,13.21826220,.0002031,87.9260,241.9390,93.4379,266.6988,0,U,54675,999,17278,.11768E-3,.62E-6,0
ONEWEB-0615,2022-166AL,2026-06-27T11:16:19.081056,13.21827600,.0002023,87.9251,241.9418,105.4453,254.6904,0,U,54676,999,17280,-.11091E-3,-.33E-6,0
ONEWEB-0655,2022-166AM,2026-06-27T10:42:24.264288,13.21826637,.0001791,87.9248,241.9474,97.4626,262.6712,0,U,54677,999,17279,-.17201E-3,-.58E-6,0
ONEWEB-0659,2022-166AN,2026-06-27T11:06:38.820384,13.21852695,.0002064,87.9245,241.9438,98.3997,261.7371,0,U,54678,999,17288,.11921E-3,.62E-6,0
ONEWEB-0685,2022-166AP,2026-06-27T11:06:30.919104,13.21848286,.000191,87.9243,241.9357,87.7673,272.3679,0,U,54679,999,17277,.94261E-4,.52E-6,0
ONEWEB-0712,2022-166AQ,2026-06-27T09:29:40.299648,13.16594837,.0001612,87.9091,226.7476,99.2472,260.8842,0,U,54680,999,17340,-.17842E-4,.6E-7,0
ONEWEB-0714,2022-166AR,2026-06-27T11:13:53.987808,13.21825189,.0001778,87.9248,241.9325,102.7933,257.3400,0,U,54681,999,17289,-.14999E-3,-.49E-6,0
ONEWEB-0532,2023-004A,2026-06-27T12:16:49.552032,13.17648456,.0002187,87.9131,3.8102,85.7054,274.4328,0,U,55140,999,16894,.28965E-3,.125E-5,0
ONEWEB-0533,2023-004B,2026-06-27T12:29:48.844608,13.12444241,.0001743,87.8947,348.6150,87.0151,273.1177,0,U,55141,999,16941,-.17659E-3,-.51E-6,0
ONEWEB-0541,2023-004C,2026-06-27T13:24:28.339776,13.11413973,.0001982,87.8889,18.9938,91.0009,269.1346,0,U,55142,999,16730,.97209E-3,.357E-5,0
ONEWEB-0543,2023-004D,2026-06-27T09:46:22.357344,13.18686171,.0001643,87.9168,333.4356,98.6767,261.4551,0,U,55143,999,17104,.69879E-4,.4E-6,0
ONEWEB-0544,2023-004E,2026-06-27T11:25:55.237728,13.18686549,.0001842,87.9168,333.4214,101.6041,258.5298,0,U,55144,999,17105,.16408E-3,.78E-6,0
ONEWEB-0560,2023-004F,2026-06-27T11:16:11.629920,13.18687501,.000179,87.9169,333.4122,104.1700,255.9631,0,U,55145,999,17106,.2154E-3,.98E-6,0
ONEWEB-0565,2023-004G,2026-06-27T11:06:30.280608,13.18686091,.0002211,87.9160,333.4404,101.6354,258.5026,0,U,55146,999,17105,-.10841E-3,-.3E-6,0
ONEWEB-0567,2023-004H,2026-06-27T10:56:47.436576,13.18686727,.0002074,87.9168,333.4268,103.6367,256.4997,0,U,55147,999,17105,.29762E-3,.13E-5,0
ONEWEB-0569,2023-004J,2026-06-27T08:50:19.296096,13.13470730,.0002086,87.8972,318.1932,123.7077,236.4251,0,U,55148,999,17151,.64949E-3,.25E-5,0
ONEWEB-0570,2023-004K,2026-06-27T10:44:38.451264,13.18686444,.0002242,87.9167,333.4263,90.9699,269.1690,0,U,55149,999,17104,.23716E-3,.106E-5,0
ONEWEB-0571,2023-004L,2026-06-27T10:34:55.709184,13.18685660,.0002738,87.9168,333.4271,118.2028,241.9381,0,U,55150,999,17105,.20963E-3,.96E-6,0
ONEWEB-0572,2023-004M,2026-06-27T11:12:26.639136,13.17649238,.0002036,87.9130,3.8199,93.6165,266.5199,0,U,55151,999,16883,.11036E-3,.56E-6,0
ONEWEB-0573,2023-004N,2026-06-27T10:25:12.658656,13.18687317,.0002555,87.9170,333.4300,109.4544,250.6864,0,U,55152,999,17104,.76851E-4,.43E-6,0
ONEWEB-0588,2023-004P,2026-06-27T10:15:30.568896,13.18686266,.0002348,87.9167,333.4314,91.9957,268.1444,0,U,55153,999,17104,.14659E-3,.71E-6,0
ONEWEB-0598,2023-004Q,2026-06-27T11:02:52.405728,13.11417824,.0002083,87.8881,19.0229,108.3431,251.7924,0,U,55154,999,16724,.11895E-2,.434E-5,0
ONEWEB-0599,2023-004R,2026-06-27T12:05:54.289248,13.17649729,.0001693,87.9131,3.8113,95.2367,264.8957,0,U,55155,999,16884,.21683E-3,.97E-6,0
ONEWEB-0614,2023-004S,2026-06-27T12:45:24.469344,13.11418473,.0001952,87.8880,19.0175,81.7463,278.3886,0,U,55156,999,16719,.62239E-3,.233E-5,0
ONEWEB-0616,2023-004T,2026-06-27T11:17:18.588192,13.17649531,.0001015,87.9133,3.8217,106.5142,253.6101,0,U,55157,999,16905,.11956E-3,.59E-6,0
ONEWEB-0617,2023-004U,2026-06-27T12:28:19.051680,13.11418680,.0002204,87.8885,19.0116,81.4377,278.7000,0,U,55158,999,16721,-.67952E-3,-.228E-5,0
ONEWEB-0618,2023-004V,2026-06-27T12:10:43.140000,15.13217543,.0009465,86.9092,173.4444,250.3074,109.7145,0,U,55159,999,18382,.22068E-3,.3953E-4,0
ONEWEB-0619,2023-004W,2026-06-27T12:03:28.808064,13.17650089,.0001731,87.9142,3.7970,77.4758,282.6567,0,U,55160,999,16895,.19354E-3,.88E-6,0
