ONEWEB-0608             
1 54672U 22166AG  26178.20049679  .00000097  00000+0  20292-3 0  9995
2 54672  87.9259 241.9758 0002073  83.2364 276.9006 13.21828730172870
ONEWEB-0610             
1 54673U 22166AH  26178.40743066  .00000002  00000+0 -26270-4 0  9999
2 54673  87.9247 241.9478 0001800  81.1175 279.0162 13.21825151172805
ONEWEB-0611             
1 54674U 22166AJ  26178.47637905  .00000006  00000+0 -17810-4 0  9995
2 54674  87.9249 241.9300 0002143 101.1201 259.0174 13.21825768172801
ONEWEB-0612             
1 54675U 22166AK  26178.41416189  .00000062  00000+0  11768-3 0  9995
2 54675  87.9260 241.9390 0002031  93.4379 266.6988 13.21826220172787
ONEWEB-0615             
1 54676U 22166AL  26178.46966529 -.00000033  00000+0 -11091-3 0  9998
2 54676  87.9251 241.9418 0002023 105.4453 254.6904 13.21827600172808
ONEWEB-0655             
1 54677U 22166AM  26178.44611417 -.00000058  00000+0 -17201-3 0  9996
2 54677  87.9248 241.9474 0001791  97.4626 262.6712 13.21826637172793
ONEWEB-0659             
1 54678U 22166AN  26178.46294931  .00000062  00000+0  11921-3 0  9993
2 54678  87.9245 241.9438 0002064  98.3997 261.7371 13.21852695172880
ONEWEB-0685             
1 54679U 22166AP  26178.46285786  .00000052  00000+0  94261-4 0  9990
2 54679  87.9243 241.9357 0001910  87.7673 272.3679 13.21848286172779
ONEWEB-0712             
1 54680U 22166AQ  26178.39560532  .00000006  00000+0 -17842-4 0  9999
2 54680  87.9091 226.7476 0001612  99.2472 260.8842 13.16594837173408
ONEWEB-0714             
1 54681U 22166AR  26178.46798597 -.00000049  00000+0 -14999-3 0  9999
2 54681  87.9248 241.9325 0001778 102.7933 257.3400 13.21825189172896
ONEWEB-0532             
1 55140U 23004A   26178.51168463  .00000125  00000+0  28965-3 0  9992
2 55140  87.9131   3.8102 0002187  85.7054 274.4328 13.17648456168940
ONEWEB-0533             
1 55141U 23004B   26178.52070422 -.00000051  00000+0 -17659-3 0  9999
2 55141  87.8947 348.6150 0001743  87.0151 273.1177 13.12444241169410
ONEWEB-0541             
1 55142U 23004C   26178.55866134  .00000357  00000+0  97209-3 0  9992
2 55142  87.8889  18.9938 0001982  91.0009 269.1346 13.11413973167305
ONEWEB-0543             
1 55143U 23004D   26178.40720321  .00000040  00000+0  69879-4 0  9996
2 55143  87.9168 333.4356 0001643  98.6767 261.4551 13.18686171171042
ONEWEB-0544             
1 55144U 23004E   26178.47633377  .00000078  00000+0  16408-3 0  9998
2 55144  87.9168 333.4214 0001842 101.6041 258.5298 13.18686549171052
ONEWEB-0560             
1 55145U 23004F   26178.46957905  .00000098  00000+0  21540-3 0  9999
2 55145  87.9169 333.4122 0001790 104.1700 255.9631 13.18687501171066
ONEWEB-0565             
1 55146U 23004G   26178.46285047 -.00000030  00000+0 -10841-3 0  9991
2 55146  87.9160 333.4404 0002211 101.6354 258.5026 13.18686091171056
ONEWEB-0567             
1 55147U 23004H   26178.45610459  .00000130  00000+0  29762-3 0  9991
2 55147  87.9168 333.4268 0002074 103.6367 256.4997 13.18686727171056
ONEWEB-0569             
1 55148U 23004J   26178.36827889  .00000250  00000+0  64949-3 0  9998
2 55148  87.8972 318.1932 0002086 123.7077 236.4251 13.13470730171513
ONEWEB-0570             
1 55149U 23004K   26178.44766726  .00000106  00000+0  23716-3 0  9997
2 55149  87.9167 333.4263 0002242  90.9699 269.1690 13.18686444171041
ONEWEB-0571             
1 55150U 23004L   26178.44092256  .00000096  00000+0  20963-3 0  9998
2 55150  87.9168 333.4271 0002738 118.2028 241.9381 13.18685660171058
ONEWEB-0572             
1 55151U 23004M   26178.46697499  .00000056  00000+0  11036-3 0  9998
2 55151  87.9130   3.8199 0002036  93.6165 266.5199 13.17649238168836
ONEWEB-0573             
1 55152U 23004N   26178.43417429  .00000043  00000+0  76851-4 0  9992
2 55152  87.9170 333.4300 0002555 109.4544 250.6864 13.18687317171041
ONEWEB-0588             
1 55153U 23004P   26178.42743714  .00000071  00000+0  14659-3 0  9999
2 55153  87.9167 333.4314 0002348  91.9957 268.1444 13.18686266171046
ONEWEB-0598             
1 55154U 23004Q   26178.46032877  .00000434  00000+0  11895-2 0  9996
2 55154  87.8881  19.0229 0002083 108.3431 251.7924 13.11417824167240
ONEWEB-0599             
1 55155U 23004R   26178.50410057  .00000097  00000+0  21683-3 0  9994
2 55155  87.9131   3.8113 0001693  95.2367 264.8957 13.17649729168846
ONEWEB-0614             
1 55156U 23004S   26178.53153321  .00000233  00000+0  62239-3 0  9990
2 55156  87.8880  19.0175 0001952  81.7463 278.3886 13.11418473167191
ONEWEB-0616             
1 55157U 23004T   26178.47035403  .00000059  00000+0  11956-3 0  9990
2 55157  87.9133   3.8217 0001015 106.5142 253.6101 13.17649531169052
ONEWEB-0617             
1 55158U 23004U   26178.51966495 -.00000228  00000+0 -67952-3 0  9997
2 55158  87.8885  19.0116 0002204  81.4377 278.7000 13.11418680167210
ONEWEB-0618             
1 55159U 23004V   26178.50744375  .00003953  00000+0  22068-3 0  9993
2 55159  86.9092 173.4444 0009465 250.3074 109.7145 15.13217543183824
ONEWEB-0619             
1 55160U 23004W   26178.50241676  .00000088  00000+0  19354-3 0  9991
2 55160  87.9142   3.7970 0001731  77.4758 282.6567 13.17650089168951
